[{"OBJECT_NAME":"NUSAT-1 (FRESCO)","OBJECT_ID":"2016-033B","EPOCH":"2023-04-27T04:28:15.223584","MEAN_MOTION":15.53552429,"ECCENTRICITY":0.0006069,"INCLINATION":97.3851,"RA_OF_ASC_NODE":223.2944,"ARG_OF_PERICENTER":311.2962,"MEAN_ANOMALY":136.4605,"EPHEMERIS_TYPE":0,"CLASSIFICATION_TYPE":"U","NORAD_CAT_ID":41557,"ELEMENT_SET_NO":999,"REV_AT_EPOCH":38569,"BSTAR":0.00080211,"MEAN_MOTION_DOT":0.00051207,"MEAN_MOTION_DDOT":0},{"OBJECT_NAME":"CARTOSAT-2C","OBJECT_ID":"2016-040A","EPOCH":"2023-04-27T01:22:55.447680","MEAN_MOTION":15.19162911,"ECCENTRICITY":0.001432,"INCLINATION":97.4414,"RA_OF_ASC_NODE":178.0833,"ARG_OF_PERICENTER":166.2486,"MEAN_ANOMALY":285.1482,"EPHEMERIS_TYPE":0,"CLASSIFICATION_TYPE":"U","NORAD_CAT_ID":41599,"ELEMENT_SET_NO":999,"REV_AT_EPOCH":37954,"BSTAR":0.00031579,"MEAN_MOTION_DOT":6.589e-5,"MEAN_MOTION_DDOT":0},{"OBJECT_NAME":"BIROS","OBJECT_ID":"2016-040F","EPOCH":"2023-04-26T20:27:33.144480","MEAN_MOTION":15.28575482,"ECCENTRICITY":0.0012515,"INCLINATION":97.1689,"RA_OF_ASC_NODE":154.3904,"ARG_OF_PERICENTER":102.0875,"MEAN_ANOMALY":258.1768,"EPHEMERIS_TYPE":0,"CLASSIFICATION_TYPE":"U","NORAD_CAT_ID":41604,"ELEMENT_SET_NO":999,"REV_AT_EPOCH":38025,"BSTAR":0.00028893,"MEAN_MOTION_DOT":7.979e-5,"MEAN_MOTION_DDOT":0},{"OBJECT_NAME":"SKYSAT-C5","OBJECT_ID":"2016-058C","EPOCH":"2023-04-27T02:46:56.030592","MEAN_MOTION":15.3150031,"ECCENTRICITY":0.0002663,"INCLINATION":97.2182,"RA_OF_ASC_NODE":177.1749,"ARG_OF_PERICENTER":128.0375,"MEAN_ANOMALY":232.1107,"EPHEMERIS_TYPE":0,"CLASSIFICATION_TYPE":"U","NORAD_CAT_ID":41772,"ELEMENT_SET_NO":999,"REV_AT_EPOCH":36768,"BSTAR":0.0003428,"MEAN_MOTION_DOT":0.00010357,"MEAN_MOTION_DDOT":0},{"OBJECT_NAME":"SKYSAT-C2","OBJECT_ID":"2016-058D","EPOCH":"2023-04-26T11:11:23.922240","MEAN_MOTION":15.40352297,"ECCENTRICITY":0.0008296,"INCLINATION":97.0726,"RA_OF_ASC_NODE":177.3436,"ARG_OF_PERICENTER":97.3224,"MEAN_ANOMALY":262.8967,"EPHEMERIS_TYPE":0,"CLASSIFICATION_TYPE":"U","NORAD_CAT_ID":41773,"ELEMENT_SET_NO":999,"REV_AT_EPOCH":36911,"BSTAR":0.0003702,"MEAN_MOTION_DOT":0.0001489,"MEAN_MOTION_DDOT":0},{"OBJECT_NAME":"SKYSAT-C3","OBJECT_ID":"2016-058E","EPOCH":"2023-04-27T03:08:47.830560","MEAN_MOTION":15.4247575,"ECCENTRICITY":0.000941,"INCLINATION":97.0718,"RA_OF_ASC_NODE":180.367,"ARG_OF_PERICENTER":139.5532,"MEAN_ANOMALY":220.6417,"EPHEMERIS_TYPE":0,"CLASSIFICATION_TYPE":"U","NORAD_CAT_ID":41774,"ELEMENT_SET_NO":999,"REV_AT_EPOCH":36937,"BSTAR":0.00040444,"MEAN_MOTION_DOT":0.00017476,"MEAN_MOTION_DDOT":0},{"OBJECT_NAME":"ALSAT 1B","OBJECT_ID":"2016-059C","EPOCH":"2023-04-27T01:13:12.481824","MEAN_MOTION":14.70370544,"ECCENTRICITY":0.0008466,"INCLINATION":97.8654,"RA_OF_ASC_NODE":156.1013,"ARG_OF_PERICENTER":311.6237,"MEAN_ANOMALY":48.4247,"EPHEMERIS_TYPE":0,"CLASSIFICATION_TYPE":"U","NORAD_CAT_ID":41785,"ELEMENT_SET_NO":999,"REV_AT_EPOCH":35189,"BSTAR":7.3953e-5,"MEAN_MOTION_DOT":4.0e-6,"MEAN_MOTION_DDOT":0},{"OBJECT_NAME":"PATHFINDER 1","OBJECT_ID":"2016-059E","EPOCH":"2023-04-26T19:35:15.026496","MEAN_MOTION":14.64516184,"ECCENTRICITY":0.0029092,"INCLINATION":97.8714,"RA_OF_ASC_NODE":152.7791,"ARG_OF_PERICENTER":253.941,"MEAN_ANOMALY":105.8664,"EPHEMERIS_TYPE":0,"CLASSIFICATION_TYPE":"U","NORAD_CAT_ID":41787,"ELEMENT_SET_NO":999,"REV_AT_EPOCH":35159,"BSTAR":0.00023475,"MEAN_MOTION_DOT":1.205e-5,"MEAN_MOTION_DDOT":0},{"OBJECT_NAME":"SCATSAT 1","OBJECT_ID":"2016-059H","EPOCH":"2023-04-26T19:50:08.994336","MEAN_MOTION":14.51088331,"ECCENTRICITY":0.0004276,"INCLINATION":98.2754,"RA_OF_ASC_NODE":161.6041,"ARG_OF_PERICENTER":339.1306,"MEAN_ANOMALY":20.9713,"EPHEMERIS_TYPE":0,"CLASSIFICATION_TYPE":"U","NORAD_CAT_ID":41790,"ELEMENT_SET_NO":999,"REV_AT_EPOCH":34851,"BSTAR":0.00012063,"MEAN_MOTION_DOT":4.34e-6,"MEAN_MOTION_DDOT":0},{"OBJECT_NAME":"GOKTURK 1A","OBJECT_ID":"2016-073A","EPOCH":"2023-04-27T02:41:52.147104","MEAN_MOTION":14.62782464,"ECCENTRICITY":0.0001639,"INCLINATION":98.1413,"RA_OF_ASC_NODE":12.3507,"ARG_OF_PERICENTER":70.9515,"MEAN_ANOMALY":289.1868,"EPHEMERIS_TYPE":0,"CLASSIFICATION_TYPE":"U","NORAD_CAT_ID":41875,"ELEMENT_SET_NO":999,"REV_AT_EPOCH":34113,"BSTAR":0.00010265,"MEAN_MOTION_DOT":4.77e-6,"MEAN_MOTION_DDOT":0},{"OBJECT_NAME":"RESOURCESAT-2A","OBJECT_ID":"2016-074A","EPOCH":"2023-04-27T03:26:53.668608","MEAN_MOTION":14.21637858,"ECCENTRICITY":0.0002231,"INCLINATION":98.6817,"RA_OF_ASC_NODE":193.0658,"ARG_OF_PERICENTER":122.2932,"MEAN_ANOMALY":237.8495,"EPHEMERIS_TYPE":0,"CLASSIFICATION_TYPE":"U","NORAD_CAT_ID":41877,"ELEMENT_SET_NO":999,"REV_AT_EPOCH":33133,"BSTAR":9.0319e-5,"MEAN_MOTION_DOT":1.55e-6,"MEAN_MOTION_DDOT":0}]
