NUSAT-1 (FRESCO)        
1 41557U 16033B   23117.18628731  .00051207  00000+0  80211-3 0  9994
2 41557  97.3851 223.2944 0006069 311.2962 136.4605 15.53552429385695
CARTOSAT-2C             
1 41599U 16040A   23117.05758620  .00006589  00000+0  31579-3 0  9991
2 41599  97.4414 178.0833 0014320 166.2486 285.1482 15.19162911379546
BIROS                   
1 41604U 16040F   23116.85246695  .00007979  00000+0  28893-3 0  9998
2 41604  97.1689 154.3904 0012515 102.0875 258.1768 15.28575482380252
SKYSAT-C5               
1 41772U 16058C   23117.11592628  .00010357  00000+0  34280-3 0  9994
2 41772  97.2182 177.1749 0002663 128.0375 232.1107 15.31500310367686
SKYSAT-C2               
1 41773U 16058D   23116.46624910  .00014890  00000+0  37020-3 0  9993
2 41773  97.0726 177.3436 0008296  97.3224 262.8967 15.40352297369116
SKYSAT-C3               
1 41774U 16058E   23117.13110915  .00017476  00000+0  40444-3 0  9991
2 41774  97.0718 180.3670 0009410 139.5532 220.6417 15.42475750369374
ALSAT 1B                
1 41785U 16059C   23117.05083891  .00000400  00000+0  73953-4 0  9998
2 41785  97.8654 156.1013 0008466 311.6237  48.4247 14.70370544351890
PATHFINDER 1            
1 41787U 16059E   23116.81614614  .00001205  00000+0  23475-3 0  9993
2 41787  97.8714 152.7791 0029092 253.9410 105.8664 14.64516184351596
SCATSAT 1               
1 41790U 16059H   23116.82649299  .00000434  00000+0  12063-3 0  9999
2 41790  98.2754 161.6041 0004276 339.1306  20.9713 14.51088331348518
GOKTURK 1A              
1 41875U 16073A   23117.11240911  .00000477  00000+0  10265-3 0  9999
2 41875  98.1413  12.3507 0001639  70.9515 289.1868 14.62782464341135
RESOURCESAT-2A          
1 41877U 16074A   23117.14367672  .00000155  00000+0  90319-4 0  9991
2 41877  98.6817 193.0658 0002231 122.2932 237.8495 14.21637858331335
